STARLINK-35825          
1 66567U 25268L   25342.83335647 -.01762226  00000+0 -31980-1 0  9997
2 66567  43.0004 144.0006 0001566 271.7111 333.2573 15.52086079  4043
STARLINK-35803          
1 66568U 25268M   25342.83335647 -.01761903  00000+0 -31976-1 0  9994
2 66568  43.0004 143.9953 0001506 272.1494 334.7383 15.52084544  4046
STARLINK-35835          
1 66569U 25268N   25342.83335647 -.01763011  00000+0 -31997-1 0  9990
2 66569  43.0005 143.9906 0001460 271.1951 337.6073 15.52086211  4043
STARLINK-35834          
1 66570U 25268P   25342.83335647 -.01765145  00000+0 -32037-1 0  9998
2 66570  43.0007 143.9856 0001455 277.1611 333.5561 15.52089569  4040
STARLINK-35836          
1 66571U 25268Q   25342.83335647 -.01760203  00000+0 -31939-1 0  9999
2 66571  43.0007 143.9811 0001533 277.3470 335.2875 15.52086032  4043
STARLINK-35870          
1 66572U 25268R   25342.83335647 -.01769707  00000+0 -32127-1 0  9998
2 66572  43.0007 143.9771 0001516 276.7540 337.7979 15.52091692  4041
STARLINK-35650          
1 66573U 25268S   25342.83335647 -.01769955  00000+0 -32132-1 0  9990
2 66573  43.0007 143.9714 0001536 280.2592 336.2104 15.52090806  4048
STARLINK-35812          
1 66574U 25268T   25342.83335647 -.01758073  00000+0 -31899-1 0  9999
2 66574  43.0006 143.9661 0001666 268.6467 349.7418 15.52081689  4040
STARLINK-35810          
1 66575U 25268U   25342.83335647 -.01761449  00000+0 -31966-1 0  9996
2 66575  43.0006 143.9613 0001578 272.7131 347.5912 15.52084482  4043
STARLINK-35814          
1 66576U 25268V   25342.83335647 -.01763001  00000+0 -31998-1 0  9998
2 66576  43.0007 143.9565 0001452 269.5760 352.6469 15.52084888  4048
STARLINK-35815          
1 66577U 25268W   25342.83335647 -.01769274  00000+0 -32123-1 0  9998
2 66577  43.0006 143.9517 0001463 273.0566 351.0832 15.52087914  4041
STARLINK-35743          
1 66578U 25268X   25342.83335647 -.01765713  00000+0 -32053-1 0  9995
2 66578  43.0006 143.9468 0001475 275.5797 350.4775 15.52085404  4044
