CCSDS_OMM_VERS = 2.0
CREATION_DATE  = 
ORIGINATOR     = 

OBJECT_NAME    = STARLINK-35825
OBJECT_ID      = 2025-268L
CENTER_NAME    = EARTH
REF_FRAME      = TEME
TIME_SYSTEM    = UTC
MEAN_ELEMENT_THEORY = SGP/SGP4

EPOCH          = 2025-12-08T20:00:01.999008
MEAN_MOTION    = 15.52086079
ECCENTRICITY   = .0001566
INCLINATION    = 43.0004
RA_OF_ASC_NODE = 144.0006
ARG_OF_PERICENTER = 271.7111
MEAN_ANOMALY   = 333.2573

EPHEMERIS_TYPE = 0
CLASSIFICATION_TYPE = U
NORAD_CAT_ID   = 66567
ELEMENT_SET_NO = 999
REV_AT_EPOCH   = 404
BSTAR          = -.3198E-1
MEAN_MOTION_DOT = -.1762226E-1
MEAN_MOTION_DDOT = 0

CCSDS_OMM_VERS = 2.0
CREATION_DATE  = 
ORIGINATOR     = 

OBJECT_NAME    = STARLINK-35803
OBJECT_ID      = 2025-268M
CENTER_NAME    = EARTH
REF_FRAME      = TEME
TIME_SYSTEM    = UTC
MEAN_ELEMENT_THEORY = SGP/SGP4

EPOCH          = 2025-12-08T20:00:01.999008
MEAN_MOTION    = 15.52084544
ECCENTRICITY   = .0001506
INCLINATION    = 43.0004
RA_OF_ASC_NODE = 143.9953
ARG_OF_PERICENTER = 272.1494
MEAN_ANOMALY   = 334.7383

EPHEMERIS_TYPE = 0
CLASSIFICATION_TYPE = U
NORAD_CAT_ID   = 66568
ELEMENT_SET_NO = 999
REV_AT_EPOCH   = 404
BSTAR          = -.31976E-1
MEAN_MOTION_DOT = -.1761903E-1
MEAN_MOTION_DDOT = 0

CCSDS_OMM_VERS = 2.0
CREATION_DATE  = 
ORIGINATOR     = 

OBJECT_NAME    = STARLINK-35835
OBJECT_ID      = 2025-268N
CENTER_NAME    = EARTH
REF_FRAME      = TEME
TIME_SYSTEM    = UTC
MEAN_ELEMENT_THEORY = SGP/SGP4

EPOCH          = 2025-12-08T20:00:01.999008
MEAN_MOTION    = 15.52086211
ECCENTRICITY   = .000146
INCLINATION    = 43.0005
RA_OF_ASC_NODE = 143.9906
ARG_OF_PERICENTER = 271.1951
MEAN_ANOMALY   = 337.6073

EPHEMERIS_TYPE = 0
CLASSIFICATION_TYPE = U
NORAD_CAT_ID   = 66569
ELEMENT_SET_NO = 999
REV_AT_EPOCH   = 404
BSTAR          = -.31997E-1
MEAN_MOTION_DOT = -.1763011E-1
MEAN_MOTION_DDOT = 0

CCSDS_OMM_VERS = 2.0
CREATION_DATE  = 
ORIGINATOR     = 

OBJECT_NAME    = STARLINK-35834
OBJECT_ID      = 2025-268P
CENTER_NAME    = EARTH
REF_FRAME      = TEME
TIME_SYSTEM    = UTC
MEAN_ELEMENT_THEORY = SGP/SGP4

EPOCH          = 2025-12-08T20:00:01.999008
MEAN_MOTION    = 15.52089569
ECCENTRICITY   = .0001455
INCLINATION    = 43.0007
RA_OF_ASC_NODE = 143.9856
ARG_OF_PERICENTER = 277.1611
MEAN_ANOMALY   = 333.5561

EPHEMERIS_TYPE = 0
CLASSIFICATION_TYPE = U
NORAD_CAT_ID   = 66570
ELEMENT_SET_NO = 999
REV_AT_EPOCH   = 404
BSTAR          = -.32037E-1
MEAN_MOTION_DOT = -.1765145E-1
MEAN_MOTION_DDOT = 0

CCSDS_OMM_VERS = 2.0
CREATION_DATE  = 
ORIGINATOR     = 

OBJECT_NAME    = STARLINK-35836
OBJECT_ID      = 2025-268Q
CENTER_NAME    = EARTH
REF_FRAME      = TEME
TIME_SYSTEM    = UTC
MEAN_ELEMENT_THEORY = SGP/SGP4

EPOCH          = 2025-12-08T20:00:01.999008
MEAN_MOTION    = 15.52086032
ECCENTRICITY   = .0001533
INCLINATION    = 43.0007
RA_OF_ASC_NODE = 143.9811
ARG_OF_PERICENTER = 277.3470
MEAN_ANOMALY   = 335.2875

EPHEMERIS_TYPE = 0
CLASSIFICATION_TYPE = U
NORAD_CAT_ID   = 66571
ELEMENT_SET_NO = 999
REV_AT_EPOCH   = 404
BSTAR          = -.31939E-1
MEAN_MOTION_DOT = -.1760203E-1
MEAN_MOTION_DDOT = 0

CCSDS_OMM_VERS = 2.0
CREATION_DATE  = 
ORIGINATOR     = 

OBJECT_NAME    = STARLINK-35870
OBJECT_ID      = 2025-268R
CENTER_NAME    = EARTH
REF_FRAME      = TEME
TIME_SYSTEM    = UTC
MEAN_ELEMENT_THEORY = SGP/SGP4

EPOCH          = 2025-12-08T20:00:01.999008
MEAN_MOTION    = 15.52091692
ECCENTRICITY   = .0001516
INCLINATION    = 43.0007
RA_OF_ASC_NODE = 143.9771
ARG_OF_PERICENTER = 276.7540
MEAN_ANOMALY   = 337.7979

EPHEMERIS_TYPE = 0
CLASSIFICATION_TYPE = U
NORAD_CAT_ID   = 66572
ELEMENT_SET_NO = 999
REV_AT_EPOCH   = 404
BSTAR          = -.32127E-1
MEAN_MOTION_DOT = -.1769707E-1
MEAN_MOTION_DDOT = 0

CCSDS_OMM_VERS = 2.0
CREATION_DATE  = 
ORIGINATOR     = 

OBJECT_NAME    = STARLINK-35650
OBJECT_ID      = 2025-268S
CENTER_NAME    = EARTH
REF_FRAME      = TEME
TIME_SYSTEM    = UTC
MEAN_ELEMENT_THEORY = SGP/SGP4

EPOCH          = 2025-12-08T20:00:01.999008
MEAN_MOTION    = 15.52090806
ECCENTRICITY   = .0001536
INCLINATION    = 43.0007
RA_OF_ASC_NODE = 143.9714
ARG_OF_PERICENTER = 280.2592
MEAN_ANOMALY   = 336.2104

EPHEMERIS_TYPE = 0
CLASSIFICATION_TYPE = U
NORAD_CAT_ID   = 66573
ELEMENT_SET_NO = 999
REV_AT_EPOCH   = 404
BSTAR          = -.32132E-1
MEAN_MOTION_DOT = -.1769955E-1
MEAN_MOTION_DDOT = 0

CCSDS_OMM_VERS = 2.0
CREATION_DATE  = 
ORIGINATOR     = 

OBJECT_NAME    = STARLINK-35812
OBJECT_ID      = 2025-268T
CENTER_NAME    = EARTH
REF_FRAME      = TEME
TIME_SYSTEM    = UTC
MEAN_ELEMENT_THEORY = SGP/SGP4

EPOCH          = 2025-12-08T20:00:01.999008
MEAN_MOTION    = 15.52081689
ECCENTRICITY   = .0001666
INCLINATION    = 43.0006
RA_OF_ASC_NODE = 143.9661
ARG_OF_PERICENTER = 268.6467
MEAN_ANOMALY   = 349.7418

EPHEMERIS_TYPE = 0
CLASSIFICATION_TYPE = U
NORAD_CAT_ID   = 66574
ELEMENT_SET_NO = 999
REV_AT_EPOCH   = 404
BSTAR          = -.31899E-1
MEAN_MOTION_DOT = -.1758073E-1
MEAN_MOTION_DDOT = 0

CCSDS_OMM_VERS = 2.0
CREATION_DATE  = 
ORIGINATOR     = 

OBJECT_NAME    = STARLINK-35810
OBJECT_ID      = 2025-268U
CENTER_NAME    = EARTH
REF_FRAME      = TEME
TIME_SYSTEM    = UTC
MEAN_ELEMENT_THEORY = SGP/SGP4

EPOCH          = 2025-12-08T20:00:01.999008
MEAN_MOTION    = 15.52084482
ECCENTRICITY   = .0001578
INCLINATION    = 43.0006
RA_OF_ASC_NODE = 143.9613
ARG_OF_PERICENTER = 272.7131
MEAN_ANOMALY   = 347.5912

EPHEMERIS_TYPE = 0
CLASSIFICATION_TYPE = U
NORAD_CAT_ID   = 66575
ELEMENT_SET_NO = 999
REV_AT_EPOCH   = 404
BSTAR          = -.31966E-1
MEAN_MOTION_DOT = -.1761449E-1
MEAN_MOTION_DDOT = 0

CCSDS_OMM_VERS = 2.0
CREATION_DATE  = 
ORIGINATOR     = 

OBJECT_NAME    = STARLINK-35814
OBJECT_ID      = 2025-268V
CENTER_NAME    = EARTH
REF_FRAME      = TEME
TIME_SYSTEM    = UTC
MEAN_ELEMENT_THEORY = SGP/SGP4

EPOCH          = 2025-12-08T20:00:01.999008
MEAN_MOTION    = 15.52084888
ECCENTRICITY   = .0001452
INCLINATION    = 43.0007
RA_OF_ASC_NODE = 143.9565
ARG_OF_PERICENTER = 269.5760
MEAN_ANOMALY   = 352.6469

EPHEMERIS_TYPE = 0
CLASSIFICATION_TYPE = U
NORAD_CAT_ID   = 66576
ELEMENT_SET_NO = 999
REV_AT_EPOCH   = 404
BSTAR          = -.31998E-1
MEAN_MOTION_DOT = -.1763001E-1
MEAN_MOTION_DDOT = 0

CCSDS_OMM_VERS = 2.0
CREATION_DATE  = 
ORIGINATOR     = 

OBJECT_NAME    = STARLINK-35815
OBJECT_ID      = 2025-268W
CENTER_NAME    = EARTH
REF_FRAME      = TEME
TIME_SYSTEM    = UTC
MEAN_ELEMENT_THEORY = SGP/SGP4

EPOCH          = 2025-12-08T20:00:01.999008
MEAN_MOTION    = 15.52087914
ECCENTRICITY   = .0001463
INCLINATION    = 43.0006
RA_OF_ASC_NODE = 143.9517
ARG_OF_PERICENTER = 273.0566
MEAN_ANOMALY   = 351.0832

EPHEMERIS_TYPE = 0
CLASSIFICATION_TYPE = U
NORAD_CAT_ID   = 66577
ELEMENT_SET_NO = 999
REV_AT_EPOCH   = 404
BSTAR          = -.32123E-1
MEAN_MOTION_DOT = -.1769274E-1
MEAN_MOTION_DDOT = 0

CCSDS_OMM_VERS = 2.0
CREATION_DATE  = 
ORIGINATOR     = 

OBJECT_NAME    = STARLINK-35743
OBJECT_ID      = 2025-268X
CENTER_NAME    = EARTH
REF_FRAME      = TEME
TIME_SYSTEM    = UTC
MEAN_ELEMENT_THEORY = SGP/SGP4

EPOCH          = 2025-12-08T20:00:01.999008
MEAN_MOTION    = 15.52085404
ECCENTRICITY   = .0001475
INCLINATION    = 43.0006
RA_OF_ASC_NODE = 143.9468
ARG_OF_PERICENTER = 275.5797
MEAN_ANOMALY   = 350.4775

EPHEMERIS_TYPE = 0
CLASSIFICATION_TYPE = U
NORAD_CAT_ID   = 66578
ELEMENT_SET_NO = 999
REV_AT_EPOCH   = 404
BSTAR          = -.32053E-1
MEAN_MOTION_DOT = -.1765713E-1
MEAN_MOTION_DDOT = 0

